[{"OBJECT_NAME":"UNKNOWN","OBJECT_ID":"","EPOCH":"2026-03-02T13:33:18.761472","MEAN_MOTION":13.31539105,"ECCENTRICITY":0.0246381,"INCLINATION":67.2933,"RA_OF_ASC_NODE":108.2804,"ARG_OF_PERICENTER":25.3108,"MEAN_ANOMALY":125.2996,"EPHEMERIS_TYPE":0,"CLASSIFICATION_TYPE":"U","NORAD_CAT_ID":81599,"ELEMENT_SET_NO":999,"REV_AT_EPOCH":59570,"BSTAR":0.00020167,"MEAN_MOTION_DOT":5.2e-7,"MEAN_MOTION_DDOT":0},{"OBJECT_NAME":"UNKNOWN","OBJECT_ID":"","EPOCH":"2026-02-28T12:25:58.360512","MEAN_MOTION":12.81442324,"ECCENTRICITY":0.0152,"INCLINATION":56.4361,"RA_OF_ASC_NODE":353.2104,"ARG_OF_PERICENTER":247.0408,"MEAN_ANOMALY":111.4418,"EPHEMERIS_TYPE":0,"CLASSIFICATION_TYPE":"U","NORAD_CAT_ID":81605,"ELEMENT_SET_NO":999,"REV_AT_EPOCH":19617,"BSTAR":-0.0091859,"MEAN_MOTION_DOT":-2.344e-5,"MEAN_MOTION_DDOT":0},{"OBJECT_NAME":"UNKNOWN","OBJECT_ID":"","EPOCH":"2026-03-02T11:15:16.352928","MEAN_MOTION":12.38095723,"ECCENTRICITY":0.0365882,"INCLINATION":101.8459,"RA_OF_ASC_NODE":59.8973,"ARG_OF_PERICENTER":359.1406,"MEAN_ANOMALY":0.8994,"EPHEMERIS_TYPE":0,"CLASSIFICATION_TYPE":"U","NORAD_CAT_ID":81614,"ELEMENT_SET_NO":999,"REV_AT_EPOCH":54784,"BSTAR":0.038251,"MEAN_MOTION_DOT":6.236e-5,"MEAN_MOTION_DDOT":0},{"OBJECT_NAME":"UNKNOWN","OBJECT_ID":"","EPOCH":"2026-03-02T13:32:36.193920","MEAN_MOTION":13.34425688,"ECCENTRICITY":0.0767137,"INCLINATION":65.8255,"RA_OF_ASC_NODE":236.074,"ARG_OF_PERICENTER":99.2221,"MEAN_ANOMALY":269.6339,"EPHEMERIS_TYPE":0,"CLASSIFICATION_TYPE":"U","NORAD_CAT_ID":81615,"ELEMENT_SET_NO":999,"REV_AT_EPOCH":59351,"BSTAR":0.0012109,"MEAN_MOTION_DOT":3.336e-5,"MEAN_MOTION_DDOT":0},{"OBJECT_NAME":"UNKNOWN","OBJECT_ID":"","EPOCH":"2026-03-01T22:40:22.594944","MEAN_MOTION":12.57598455,"ECCENTRICITY":0.0032223,"INCLINATION":101.2669,"RA_OF_ASC_NODE":236.9635,"ARG_OF_PERICENTER":88.1019,"MEAN_ANOMALY":272.3747,"EPHEMERIS_TYPE":0,"CLASSIFICATION_TYPE":"U","NORAD_CAT_ID":81617,"ELEMENT_SET_NO":999,"REV_AT_EPOCH":56306,"BSTAR":0.0020299,"MEAN_MOTION_DOT":3.0e-6,"MEAN_MOTION_DDOT":0},{"OBJECT_NAME":"UNKNOWN","OBJECT_ID":"","EPOCH":"2026-02-26T01:53:09.671424","MEAN_MOTION":14.72174479,"ECCENTRICITY":0.0063505,"INCLINATION":66.977,"RA_OF_ASC_NODE":318.5702,"ARG_OF_PERICENTER":176.9023,"MEAN_ANOMALY":183.2505,"EPHEMERIS_TYPE":0,"CLASSIFICATION_TYPE":"U","NORAD_CAT_ID":81624,"ELEMENT_SET_NO":999,"REV_AT_EPOCH":65079,"BSTAR":0.00072056,"MEAN_MOTION_DOT":4.588e-5,"MEAN_MOTION_DDOT":0},{"OBJECT_NAME":"UNKNOWN","OBJECT_ID":"","EPOCH":"2026-02-28T11:52:12.372960","MEAN_MOTION":12.57288869,"ECCENTRICITY":0.097882,"INCLINATION":65.8284,"RA_OF_ASC_NODE":332.9748,"ARG_OF_PERICENTER":45.893,"MEAN_ANOMALY":321.8505,"EPHEMERIS_TYPE":0,"CLASSIFICATION_TYPE":"U","NORAD_CAT_ID":81640,"ELEMENT_SET_NO":999,"REV_AT_EPOCH":51985,"BSTAR":0.00065135,"MEAN_MOTION_DOT":6.54e-6,"MEAN_MOTION_DDOT":0},{"OBJECT_NAME":"UNKNOWN","OBJECT_ID":"","EPOCH":"2026-03-02T05:52:48.704160","MEAN_MOTION":13.44494129,"ECCENTRICITY":0.0363381,"INCLINATION":102.1455,"RA_OF_ASC_NODE":331.2297,"ARG_OF_PERICENTER":181.9755,"MEAN_ANOMALY":331.2613,"EPHEMERIS_TYPE":0,"CLASSIFICATION_TYPE":"U","NORAD_CAT_ID":81652,"ELEMENT_SET_NO":999,"REV_AT_EPOCH":58933,"BSTAR":0.00058473,"MEAN_MOTION_DOT":4.47e-6,"MEAN_MOTION_DDOT":0},{"OBJECT_NAME":"UNKNOWN","OBJECT_ID":"","EPOCH":"2026-03-01T04:48:30.341952","MEAN_MOTION":14.48477543,"ECCENTRICITY":0.0015567,"INCLINATION":74.0326,"RA_OF_ASC_NODE":249.6663,"ARG_OF_PERICENTER":163.3182,"MEAN_ANOMALY":196.8492,"EPHEMERIS_TYPE":0,"CLASSIFICATION_TYPE":"U","NORAD_CAT_ID":81667,"ELEMENT_SET_NO":999,"REV_AT_EPOCH":46800,"BSTAR":0.00090836,"MEAN_MOTION_DOT":3.387e-5,"MEAN_MOTION_DDOT":0},{"OBJECT_NAME":"UNKNOWN","OBJECT_ID":"","EPOCH":"2026-02-26T23:11:17.329056","MEAN_MOTION":14.10128568,"ECCENTRICITY":0.002495,"INCLINATION":66.8236,"RA_OF_ASC_NODE":172.2986,"ARG_OF_PERICENTER":182.2064,"MEAN_ANOMALY":291.0582,"EPHEMERIS_TYPE":0,"CLASSIFICATION_TYPE":"U","NORAD_CAT_ID":81674,"ELEMENT_SET_NO":999,"REV_AT_EPOCH":62446,"BSTAR":0.00061639,"MEAN_MOTION_DOT":1.014e-5,"MEAN_MOTION_DDOT":0},{"OBJECT_NAME":"UNKNOWN","OBJECT_ID":"","EPOCH":"2026-03-02T10:34:50.035296","MEAN_MOTION":14.57985642,"ECCENTRICITY":0.0023368,"INCLINATION":81.2152,"RA_OF_ASC_NODE":211.2778,"ARG_OF_PERICENTER":54.9858,"MEAN_ANOMALY":305.3528,"EPHEMERIS_TYPE":0,"CLASSIFICATION_TYPE":"U","NORAD_CAT_ID":81683,"ELEMENT_SET_NO":999,"REV_AT_EPOCH":64747,"BSTAR":0.0010471,"MEAN_MOTION_DOT":4.841e-5,"MEAN_MOTION_DDOT":0},{"OBJECT_NAME":"UNKNOWN","OBJECT_ID":"","EPOCH":"2026-02-02T14:28:43.739328","MEAN_MOTION":12.25967259,"ECCENTRICITY":0.0365424,"INCLINATION":101.0975,"RA_OF_ASC_NODE":94.3495,"ARG_OF_PERICENTER":344.6978,"MEAN_ANOMALY":14.3266,"EPHEMERIS_TYPE":0,"CLASSIFICATION_TYPE":"U","NORAD_CAT_ID":81693,"ELEMENT_SET_NO":999,"REV_AT_EPOCH":97412,"BSTAR":0.0071303,"MEAN_MOTION_DOT":9.5e-6,"MEAN_MOTION_DDOT":0},{"OBJECT_NAME":"UNKNOWN","OBJECT_ID":"","EPOCH":"2026-03-02T02:00:56.049984","MEAN_MOTION":14.4079762,"ECCENTRICITY":0.0002967,"INCLINATION":70.9991,"RA_OF_ASC_NODE":213.7849,"ARG_OF_PERICENTER":99.6396,"MEAN_ANOMALY":260.5075,"EPHEMERIS_TYPE":0,"CLASSIFICATION_TYPE":"U","NORAD_CAT_ID":81745,"ELEMENT_SET_NO":999,"REV_AT_EPOCH":64117,"BSTAR":0.0010839,"MEAN_MOTION_DOT":3.423e-5,"MEAN_MOTION_DDOT":0},{"OBJECT_NAME":"UNKNOWN","OBJECT_ID":"","EPOCH":"2026-03-02T05:07:19.516512","MEAN_MOTION":14.42122005,"ECCENTRICITY":0.0013053,"INCLINATION":82.921,"RA_OF_ASC_NODE":158.3653,"ARG_OF_PERICENTER":2.96,"MEAN_ANOMALY":357.1668,"EPHEMERIS_TYPE":0,"CLASSIFICATION_TYPE":"U","NORAD_CAT_ID":81775,"ELEMENT_SET_NO":999,"REV_AT_EPOCH":63672,"BSTAR":0.0021897,"MEAN_MOTION_DOT":7.226e-5,"MEAN_MOTION_DDOT":0},{"OBJECT_NAME":"UNKNOWN","OBJECT_ID":"","EPOCH":"2026-03-02T10:24:58.845888","MEAN_MOTION":9.33738701,"ECCENTRICITY":0.1456144,"INCLINATION":54.5136,"RA_OF_ASC_NODE":90.4694,"ARG_OF_PERICENTER":123.57,"MEAN_ANOMALY":251.2681,"EPHEMERIS_TYPE":0,"CLASSIFICATION_TYPE":"U","NORAD_CAT_ID":81779,"ELEMENT_SET_NO":999,"REV_AT_EPOCH":48776,"BSTAR":-0.20061,"MEAN_MOTION_DOT":-3.072e-5,"MEAN_MOTION_DDOT":0},{"OBJECT_NAME":"UNKNOWN","OBJECT_ID":"","EPOCH":"2026-03-02T06:57:02.818944","MEAN_MOTION":13.11312865,"ECCENTRICITY":0.0894865,"INCLINATION":65.8297,"RA_OF_ASC_NODE":277.0548,"ARG_OF_PERICENTER":247.3283,"MEAN_ANOMALY":103.0797,"EPHEMERIS_TYPE":0,"CLASSIFICATION_TYPE":"U","NORAD_CAT_ID":81792,"ELEMENT_SET_NO":999,"REV_AT_EPOCH":9046,"BSTAR":0.00060434,"MEAN_MOTION_DOT":1.662e-5,"MEAN_MOTION_DDOT":0},{"OBJECT_NAME":"UNKNOWN","OBJECT_ID":"","EPOCH":"2026-03-02T14:12:06.949440","MEAN_MOTION":12.38108876,"ECCENTRICITY":0.0275158,"INCLINATION":103.8074,"RA_OF_ASC_NODE":348.5134,"ARG_OF_PERICENTER":93.1545,"MEAN_ANOMALY":270.1027,"EPHEMERIS_TYPE":0,"CLASSIFICATION_TYPE":"U","NORAD_CAT_ID":81812,"ELEMENT_SET_NO":999,"REV_AT_EPOCH":55044,"BSTAR":0.05199,"MEAN_MOTION_DOT":7.673e-5,"MEAN_MOTION_DDOT":0}]
