UNKNOWN                 
1 81599U          26061.56480048  .00000052  00000+0  20167-3 0  9997
2 81599  67.2933 108.2804 0246381  25.3108 125.2996 13.31539105595701
UNKNOWN                 
1 81605U          26059.51803658 -.00002344  00000+0 -91859-2 0  9996
2 81605  56.4361 353.2104 0152000 247.0408 111.4418 12.81442324196173
UNKNOWN                 
1 81614U          26061.46893927  .00006236  00000+0  38251-1 0  9999
2 81614 101.8459  59.8973 0365882 359.1406   0.8994 12.38095723547849
UNKNOWN                 
1 81615U          26061.56430780  .00003336  00000+0  12109-2 0  9998
2 81615  65.8255 236.0740 0767137  99.2221 269.6339 13.34425688593517
UNKNOWN                 
1 81617U          26060.94470596  .00000300  00000+0  20299-2 0  9997
2 81617 101.2669 236.9635 0032223  88.1019 272.3747 12.57598455563066
UNKNOWN                 
1 81624U          26057.07858416  .00004588  00000+0  72056-3 0  9997
2 81624  66.9770 318.5702 0063505 176.9023 183.2505 14.72174479650798
UNKNOWN                 
1 81640U          26059.49458765  .00000654  00000+0  65135-3 0  9996
2 81640  65.8284 332.9748 0978820  45.8930 321.8505 12.57288869519851
UNKNOWN                 
1 81652U          26061.24500815  .00000447  00000+0  58473-3 0  9996
2 81652 102.1455 331.2297 0363381 181.9755 331.2613 13.44494129589337
UNKNOWN                 
1 81667U          26060.20035118  .00003387  00000+0  90836-3 0  9991
2 81667  74.0326 249.6663 0015567 163.3182 196.8492 14.48477543468000
UNKNOWN                 
1 81674U          26057.96617279  .00001014  00000+0  61639-3 0  9996
2 81674  66.8236 172.2986 0024950 182.2064 291.0582 14.10128568624462
UNKNOWN                 
1 81683U          26061.44085689  .00004841  00000+0  10471-2 0  9996
2 81683  81.2152 211.2778 0023368  54.9858 305.3528 14.57985642647471
UNKNOWN                 
1 81693U          26033.60328402  .00000950  00000+0  71303-2 0  9995
2 81693 101.0975  94.3495 0365424 344.6978  14.3266 12.25967259974124
UNKNOWN                 
1 81745U          26061.08398206  .00003423  00000+0  10839-2 0  9990
2 81745  70.9991 213.7849 0002967  99.6396 260.5075 14.40797620641176
UNKNOWN                 
1 81775U          26061.21342033  .00007226  00000+0  21897-2 0  9996
2 81775  82.9210 158.3653 0013053   2.9600 357.1668 14.42122005636723
UNKNOWN                 
1 81779U          26061.43401442 -.00003072  00000+0 -20061+0 0  9990
2 81779  54.5136  90.4694 1456144 123.5700 251.2681  9.33738701487761
UNKNOWN                 
1 81792U          26061.28961596  .00001662  00000+0  60434-3 0  9992
2 81792  65.8297 277.0548 0894865 247.3283 103.0797 13.11312865 90465
UNKNOWN                 
1 81812U          26061.59174710  .00007673  00000+0  51990-1 0  9996
2 81812 103.8074 348.5134 0275158  93.1545 270.1027 12.38108876550449
